NORAD_CAT_ID,OBJECT_NAME,OBJECT_TYPE,EPOCH,MEAN_MOTION,ECCENTRICITY,INCLINATION,RA_OF_ASC_NODE,ARG_OF_PERICENTER,MEAN_ANOMALY,BSTAR,MEAN_MOTION_DOT,MEAN_MOTION_DDOT,TLE_LINE0,TLE_LINE1,TLE_LINE2,SEMIMAJOR_AXIS,PERIOD,APOGEE,PERIGEE,DECAYED
50834.0,STARLINK-3331,PAYLOAD,2024-06-01 03:10:45,15.08837978,0.0001339,53.2164,201.6306,90.4324,269.6821,5.7193e-05,6.22e-06,0.0,0 STARLINK-3331,1 50834U 22001AH  24153.13246841  .00000622  00000-0  57193-4 0  9998,2 50834  53.2164 201.6306 0001339  90.4324 269.6821 15.08837978133938,6917.887,95.438,540.678,538.825,0.0
50834.0,STARLINK-3331,PAYLOAD,2024-06-01 09:32:18,15.08833883,0.0001412,53.2181,200.4394,96.6282,263.4871,7.2388e-05,8.64e-06,0.0,0 STARLINK-3331,1 50834U 22001AH  24153.39743151  .00000864  00000-0  72388-4 0  9993,2 50834  53.2181 200.4394 0001412  96.6282 263.4871 15.08833883132694,6917.899,95.438,540.741,538.787,0.0
50834.0,STARLINK-3331,PAYLOAD,2024-06-02 09:23:05,15.08836021,0.0001389,53.2164,195.9793,91.7846,268.3305,4.5745e-05,4.4e-06,0.0,0 STARLINK-3331,1 50834U 22001AH  24154.39103137  .00000440  00000-0  45745-4 0  9995,2 50834  53.2164 195.9793 0001389  91.7846 268.3305 15.08836021134124,6917.893,95.438,540.718,538.797,0.0
50834.0,STARLINK-3331,PAYLOAD,2024-06-03 09:13:52,15.08836155,0.0001435,53.2172,191.519,95.0552,265.0604,7.7238e-05,9.41e-06,0.0,0 STARLINK-3331,1 50834U 22001AH  24155.38463313  .00000941  00000-0  77238-4 0  9998,2 50834  53.2172 191.5190 0001435  95.0552 265.0604 15.08836155132996,6917.892,95.438,540.75,538.764,0.0
50834.0,STARLINK-3331,PAYLOAD,2024-06-04 02:43:06,15.08840596,0.0001335,53.2168,188.248,93.8491,266.2654,0.00011065,1.474e-05,0.0,0 STARLINK-3331,1 50834U 22001AH  24156.11326995  .00001474  00000-0  11065-3 0  9991,2 50834  53.2168 188.2480 0001335  93.8491 266.2654 15.08840596134380,6917.879,95.438,540.667,538.82,0.0
50834.0,STARLINK-3331,PAYLOAD,2024-06-04 07:29:15,15.08842886,0.0001338,53.2166,187.3559,93.75,266.3646,0.00012658,1.727e-05,0.0,0 STARLINK-3331,1 50834U 22001AH  24156.31198841  .00001727  00000-0  12658-3 0  9990,2 50834  53.2166 187.3559 0001338  93.7500 266.3646 15.08842886133136,6917.872,95.437,540.662,538.811,0.0
50834.0,STARLINK-3331,PAYLOAD,2024-06-04 18:36:57,15.08849678,0.0001325,53.2168,185.2744,92.8282,267.2862,0.00014371,2.001e-05,0.0,0 STARLINK-3331,1 50834U 22001AH  24156.77566254  .00002001  00000-0  14371-3 0  9997,2 50834  53.2168 185.2744 0001325  92.8282 267.2862 15.08849678134489,6917.851,95.437,540.632,538.799,0.0
50834.0,STARLINK-3331,PAYLOAD,2024-06-05 05:44:40,15.0883349,0.0001285,53.2161,183.1929,88.5174,271.5965,2.0015e-05,3.1e-07,0.0,0 STARLINK-3331,1 50834U 22001AH  24157.23935627  .00000031  00000-0  20015-4 0  9997,2 50834  53.2161 183.1929 0001285  88.5174 271.5965 15.08833490134556,6917.9,95.438,540.654,538.876,0.0
50834.0,STARLINK-3331,PAYLOAD,2024-06-05 08:55:26,15.08834874,0.0001359,53.2172,182.5995,91.4955,268.6192,3.1572e-05,2.15e-06,0.0,0 STARLINK-3331,1 50834U 22001AH  24157.37183586  .00000215  00000-0  31572-4 0  9995,2 50834  53.2172 182.5995 0001359  91.4955 268.6192 15.08834874133292,6917.896,95.438,540.701,538.821,0.0
50834.0,STARLINK-3331,PAYLOAD,2024-06-05 18:27:45,15.08838759,0.0001338,53.2169,180.8149,89.7211,270.3934,3.7739e-05,3.13e-06,0.0,0 STARLINK-3331,1 50834U 22001AH  24157.76927409  .00000313  00000-0  37739-4 0  9998,2 50834  53.2169 180.8149 0001338  89.7211 270.3934 15.08838759133359,6917.884,95.438,540.675,538.824,0.0
50834.0,STARLINK-3331,PAYLOAD,2024-06-06 10:21:36,15.08839765,0.0001453,53.2176,177.8418,95.9289,264.1868,5.4462e-06,-2.01e-06,0.0,0 STARLINK-3331,1 50834U 22001AH  24158.43167524 -.00000201  00000-0  54462-5 0  9997,2 50834  53.2176 177.8418 0001453  95.9289 264.1868 15.08839765134732,6917.881,95.438,540.751,538.741,0.0
50834.0,STARLINK-3331,PAYLOAD,2024-06-07 08:37:00,15.08838707,0.0001412,53.2169,173.6775,83.0542,277.0611,0.00010577,1.396e-05,0.0,0 STARLINK-3331,1 50834U 22001AH  24159.35903527  .00001396  00000-0  10577-3 0  9992,2 50834  53.2169 173.6775 0001412  83.0542 277.0611 15.08838707133596,6917.884,95.438,540.726,538.773,0.0
50834.0,STARLINK-3331,PAYLOAD,2024-06-07 18:09:20,15.08829583,0.0001481,53.217,171.8933,82.0888,278.0272,2.1648e-05,5.7e-07,0.0,0 STARLINK-3331,1 50834U 22001AH  24159.75648596  .00000057  00000-0  21648-4 0  9993,2 50834  53.2170 171.8933 0001481  82.0888 278.0272 15.08829583134937,6917.912,95.438,540.802,538.753,0.0
50834.0,STARLINK-3331,PAYLOAD,2024-06-08 05:17:03,15.08817151,0.0001557,53.2167,169.8096,86.911,273.2061,-5.4722e-05,-1.158e-05,0.0,0 STARLINK-3331,1 50834U 22001AH  24160.22018091 -.00001158  00000-0 -54722-4 0  9992,2 50834  53.2167 169.8096 0001557  86.9110 273.2061 15.08817151135005,6917.95,95.439,540.892,538.738,0.0
50834.0,STARLINK-3331,PAYLOAD,2024-06-08 13:13:59,15.08823635,0.0001405,53.216,168.3227,89.1362,270.9792,-3.4414e-05,-8.35e-06,0.0,0 STARLINK-3331,1 50834U 22001AH  24160.55137952 -.00000835  00000-0 -34414-4 0  9993,2 50834  53.2160 168.3227 0001405  89.1362 270.9792 15.08823635133775,6917.93,95.439,540.767,538.823,0.0
50834.0,STARLINK-3331,PAYLOAD,2024-06-08 18:00:08,15.08831365,0.0001501,53.2166,167.4321,89.3492,270.7673,2.9432e-05,1.8e-06,0.0,0 STARLINK-3331,1 50834U 22001AH  24160.75009516  .00000180  00000-0  29432-4 0  9994,2 50834  53.2166 167.4321 0001501  89.3492 270.7673 15.08831365135080,6917.907,95.438,540.81,538.733,0.0
50834.0,STARLINK-3331,PAYLOAD,2024-06-09 09:53:59,15.08843332,0.0001445,53.2148,164.4578,87.806,272.3098,0.00049346,7.575e-05,0.0,0 STARLINK-3331,1 50834U 22001AH  24161.41249562  .00007575  00000-0  49346-3 0  9995,2 50834  53.2148 164.4578 0001445  87.8060 272.3098 15.08843332133907,6917.87,95.437,540.735,538.736,0.0
50834.0,STARLINK-3331,PAYLOAD,2024-06-09 17:50:55,15.08851274,0.0001456,53.215,162.9709,90.8126,269.3033,0.00077605,0.00012088,0.0,0 STARLINK-3331,1 50834U 22001AH  24161.74369597  .00012088  00000-0  77605-3 0  9996,2 50834  53.2150 162.9709 0001456  90.8126 269.3033 15.08851274135235,6917.846,95.437,540.718,538.704,0.0
50834.0,STARLINK-3331,PAYLOAD,2024-06-10 06:33:59,15.08862872,0.0001468,53.2151,160.5931,83.2557,276.8602,0.00060822,9.411e-05,0.0,0 STARLINK-3331,1 50834U 22001AH  24162.27360869  .00009411  00000-0  60822-3 0  9997,2 50834  53.2151 160.5931 0001468  83.2557 276.8602 15.08862872134032,6917.81,95.436,540.691,538.66,0.0
50834.0,STARLINK-3331,PAYLOAD,2024-06-11 04:49:23,15.08855229,0.0001514,53.2156,156.4297,85.0102,275.1063,0.00013517,1.865e-05,0.0,0 STARLINK-3331,1 50834U 22001AH  24163.20096119  .00001865  00000-0  13517-3 0  9999,2 50834  53.2156 156.4297 0001514  85.0102 275.1063 15.08855229135452,6917.834,95.437,540.746,538.651,0.0
50834.0,STARLINK-3331,PAYLOAD,2024-06-11 09:35:32,15.08851486,0.000152,53.2158,155.5373,86.7863,273.3303,5.7142e-05,6.22e-06,0.0,0 STARLINK-3331,1 50834U 22001AH  24163.39968089  .00000622  00000-0  57142-4 0  9996,2 50834  53.2158 155.5373 0001520  86.7863 273.3303 15.08851486134208,6917.845,95.437,540.762,538.659,0.0
50834.0,STARLINK-3331,PAYLOAD,2024-06-12 06:15:33,15.08844334,0.0001546,53.2179,151.6746,92.2538,267.8631,-2.473e-05,-6.82e-06,0.0,0 STARLINK-3331,1 50834U 22001AH  24164.26080414 -.00000682  00000-0 -24730-4 0  9995,2 50834  53.2179 151.6746 0001546  92.2538 267.8631 15.08844334135613,6917.867,95.437,540.802,538.663,0.0
50834.0,STARLINK-3331,PAYLOAD,2024-06-12 15:47:51,15.0884706,0.0001608,53.2178,149.8908,93.3279,266.7897,-4.7194e-05,-1.039e-05,0.0,0 STARLINK-3331,1 50834U 22001AH  24164.65824073 -.00001039  00000-0 -47194-4 0  9991,2 50834  53.2178 149.8908 0001608  93.3279 266.7897 15.08847060134399,6917.859,95.437,540.836,538.611,0.0
50834.0,STARLINK-3331,PAYLOAD,2024-06-13 06:06:20,15.0883909,0.0001637,53.218,147.2144,97.2901,262.8277,1.7623e-05,-8e-08,0.0,0 STARLINK-3331,1 50834U 22001AH  24165.25440358 -.00000008  00000-0  17623-4 0  9996,2 50834  53.2180 147.2144 0001637  97.2901 262.8277 15.08839090134486,6917.883,95.438,540.881,538.616,0.0
50834.0,STARLINK-3331,PAYLOAD,2024-06-13 15:38:38,15.08845099,0.0001674,53.2181,145.4307,100.8657,259.2523,9.545e-06,-1.36e-06,0.0,0 STARLINK-3331,1 50834U 22001AH  24165.65183921 -.00000136  00000-0  95450-5 0  9997,2 50834  53.2181 145.4307 0001674 100.8657 259.2523 15.08845099134545,6917.865,95.437,540.888,538.572,0.0
50834.0,STARLINK-3331,PAYLOAD,2024-06-14 05:57:07,15.08834899,0.0001582,53.2181,142.7528,93.6764,266.4409,3.5857e-05,2.83e-06,0.0,0 STARLINK-3331,1 50834U 22001AH  24166.24800667  .00000283  00000-0  35857-4 0  9992,2 50834  53.2181 142.7528 0001582  93.6764 266.4409 15.08834899134635,6917.896,95.438,540.855,538.667,0.0
50834.0,STARLINK-3331,PAYLOAD,2024-06-14 21:50:58,15.08838202,0.000162,53.2187,139.7788,92.2017,267.916,6.8939e-05,8.09e-06,0.0,0 STARLINK-3331,1 50834U 22001AH  24166.91040504  .00000809  00000-0  68939-4 0  9993,2 50834  53.2187 139.7788 0001620  92.2017 267.9160 15.08838202134737,6917.886,95.438,540.872,538.63,0.0
50834.0,STARLINK-3331,PAYLOAD,2024-06-15 05:47:54,15.08840927,0.0001533,53.2179,138.291,88.4499,271.6669,3.9546e-05,3.41e-06,0.0,0 STARLINK-3331,1 50834U 22001AH  24167.24160471  .00000341  00000-0  39546-4 0  9999,2 50834  53.2179 138.2910 0001533  88.4499 271.6669 15.08840927134781,6917.878,95.437,540.803,538.682,0.0
50834.0,STARLINK-3331,PAYLOAD,2024-06-15 21:41:45,15.08839285,0.0001492,53.2173,135.3174,88.7975,271.3189,9.5933e-05,1.239e-05,0.0,0 STARLINK-3331,1 50834U 22001AH  24167.90400355  .00001239  00000-0  95933-4 0  9999,2 50834  53.2173 135.3174 0001492  88.7975 271.3189 15.08839285134881,6917.883,95.438,540.78,538.715,0.0
50834.0,STARLINK-3331,PAYLOAD,2024-06-16 04:03:18,15.08842349,0.0001401,53.2169,134.1275,94.6947,265.4205,8.758e-05,1.106e-05,0.0,0 STARLINK-3331,1 50834U 22001AH  24168.16896188  .00001106  00000-0  87580-4 0  9993,2 50834  53.2169 134.1275 0001401  94.6947 265.4205 15.08842349134923,6917.873,95.437,540.707,538.769,0.0
